[{"OBJECT_NAME":"AMAZONIA 1","OBJECT_ID":"2021-015A","EPOCH":"2026-03-09T17:05:01.705920","MEAN_MOTION":14.40836291,"ECCENTRICITY":0.00039353,"INCLINATION":98.4264,"RA_OF_ASC_NODE":142.7385,"ARG_OF_PERICENTER":123.8493,"MEAN_ANOMALY":236.3071,"EPHEMERIS_TYPE":0,"CLASSIFICATION_TYPE":"U","NORAD_CAT_ID":47699,"ELEMENT_SET_NO":999,"REV_AT_EPOCH":26432,"BSTAR":0.00010973552,"MEAN_MOTION_DOT":3.08e-6,"MEAN_MOTION_DDOT":0},{"OBJECT_NAME":"NOAA 7 DEB","OBJECT_ID":"1981-059F","EPOCH":"2026-03-09T17:20:15.216576","MEAN_MOTION":14.43018875,"ECCENTRICITY":0.00205009,"INCLINATION":98.5024,"RA_OF_ASC_NODE":122.1127,"ARG_OF_PERICENTER":68.1917,"MEAN_ANOMALY":292.1451,"EPHEMERIS_TYPE":0,"CLASSIFICATION_TYPE":"U","NORAD_CAT_ID":24914,"ELEMENT_SET_NO":999,"REV_AT_EPOCH":49029,"BSTAR":0.00032387875,"MEAN_MOTION_DOT":1.043e-5,"MEAN_MOTION_DDOT":0}]
